ONEWEB-0045             
1 45151U 20008W   24191.43480988  .00000312  00000+0  84477-3 0  9995
2 45151  87.8973 161.8987 0002120  81.1232 279.0136 13.11417438217643
ONEWEB-0047             
1 45152U 20008X   24191.46780384 -.00000096  00000+0 -31189-3 0  9995
2 45152  87.8945 177.0085 0002084  86.6822 273.4544 13.10377612215518
ONEWEB-0048             
1 45153U 20008Y   24191.46283136 -.00000366  00000+0 -10851-2 0  9991
2 45153  87.8949 177.0259 0002085  88.2866 271.8500 13.10375905215127
ONEWEB-0049             
1 45154U 20008Z   24191.46449749 -.00000277  00000+0 -82838-3 0  9992
2 45154  87.8952 177.0059 0002115 102.5082 257.6282 13.10376317215345
ONEWEB-0051             
1 45155U 20008AA  24191.43311122  .00000232  00000+0  61817-3 0  9996
2 45155  87.8974 161.9407 0001886  82.6179 277.5163 13.11417723218326
ONEWEB-0052             
1 45156U 20008AB  24191.46116987 -.00000414  00000+0 -12224-2 0  9993
2 45156  87.8944 176.9763 0002251 100.2733 259.8648 13.10375857215255
ONEWEB-0053             
1 45157U 20008AC  24191.51927156 -.00000512  00000+0 -15029-2 0  9993
2 45157  87.8939 177.0177 0002408  84.8411 275.2991 13.10370501215237
ONEWEB-0054             
1 45158U 20008AD  24191.47778280  .00000416  00000+0  11556-2 0  9993
2 45158  87.8944 177.0072 0001974  86.6276 273.5077 13.10376818215349
